OBJECT_NAME,OBJECT_ID,EPOCH,MEAN_MOTION,ECCENTRICITY,INCLINATION,RA_OF_ASC_NODE,ARG_OF_PERICENTER,MEAN_ANOMALY,EPHEMERIS_TYPE,CLASSIFICATION_TYPE,NORAD_CAT_ID,ELEMENT_SET_NO,REV_AT_EPOCH,BSTAR,MEAN_MOTION_DOT,MEAN_MOTION_DDOT
STARLINK-2506,2021-036AR,2025-12-06T15:45:33.920640,15.06388092,.00012623,53.0554,149.2565,88.8201,271.2932,0,U,48315,999,25414,.23811036E-4,.73E-6,0
STARLINK-2507,2021-036AS,2025-12-06T15:40:14.807424,15.06391938,.00013844,53.0556,149.2757,103.9907,256.1237,0,U,48316,999,25414,.63228244E-4,.66E-5,0
STARLINK-2513,2021-036AT,2025-12-06T15:34:56.898624,15.06388229,.00015,53.0547,149.2893,97.8935,262.2224,0,U,48317,999,25414,.86184503E-4,.1002E-4,0
STARLINK-2509,2021-036AU,2025-12-06T05:49:46.096896,15.06383083,.00012929,53.0526,161.1171,82.4855,277.6280,0,U,48318,999,25394,.35458556E-3,.5002E-4,0
STARLINK-2512,2021-036AV,2025-12-06T12:05:16.978272,15.06379679,.00013602,53.0539,159.9373,92.9173,267.1971,0,U,48319,999,25398,-.49096157E-4,-.1012E-4,0
STARLINK-2029,2021-036AW,2025-12-06T12:01:17.868000,15.06391753,.00014726,53.0550,159.9607,85.4773,274.6384,0,U,48320,999,25398,.24024168E-4,.76E-6,0
STARLINK-2457,2021-036AX,2025-12-06T11:56:01.570560,15.06405811,.00015725,53.0520,159.9805,102.5537,257.5628,0,U,48321,999,25398,.62127264E-3,.8986E-4,0
STARLINK-2515,2021-036AZ,2025-12-06T11:45:22.989024,15.06393485,.00014475,53.0537,160.0077,112.0120,248.1023,0,U,48323,999,25398,-.28576119E-4,-.707E-5,0
STARLINK-2495,2021-036BB,2025-12-06T11:34:47.925696,15.06396459,.00015407,53.0541,160.0394,103.8764,256.2396,0,U,48325,999,25398,.55409814E-3,.7981E-4,0
STARLINK-2498,2021-036BC,2025-12-06T11:29:28.607712,15.06385156,.00016793,53.0548,160.0564,105.2007,254.9168,0,U,48326,999,25398,-.65777956E-4,-.1261E-4,0
STARLINK-2502,2021-036BD,2025-12-06T12:59:42.284832,15.06381291,.00013782,53.0555,159.7752,94.9833,265.1313,0,U,48327,999,25399,-.7136918E-5,-.388E-5,0
STARLINK-2504,2021-036BE,2025-12-06T12:54:22.153824,15.06403730,.00016243,53.0543,159.7893,87.0885,273.0290,0,U,48328,999,25399,.15389918E-3,.2012E-4,0
STARLINK-2510,2021-036BF,2025-12-06T12:49:03.766368,15.06399554,.00013854,53.0535,159.8164,86.2837,273.8311,0,U,48329,999,25399,-.39866792E-4,-.875E-5,0
STARLINK-2501,2021-036BG,2025-12-05T19:12:48.879072,15.06408683,.00014588,53.0522,163.1020,88.9439,271.1717,0,U,48330,999,25388,.18510036E-3,.2477E-4,0
STARLINK-2514,2021-036BH,2025-12-06T15:49:31.327104,15.06401918,.0001332,53.0538,159.2447,98.1579,261.9561,0,U,48331,999,25401,-.27163853E-4,-.686E-5,0
STARLINK-2511,2021-036BJ,2025-12-06T16:00:03.000096,15.79662793,.00022735,53.0508,144.0437,325.7901,198.4721,0,U,48332,999,569,.13124944E-2,.251728E-2,0
STARLINK-2518,2021-036BK,2025-12-06T15:38:55.988160,15.06392508,.00009923,53.0541,159.2786,97.6432,262.4669,0,U,48333,999,25401,-.21744591E-3,-.3518E-4,0
STARLINK-2470,2021-036BL,2025-12-06T15:33:36.078336,15.06399276,.00012874,53.0542,159.2941,86.3284,273.7852,0,U,48334,999,25401,-.39551355E-4,-.87E-5,0
YAOGAN-34 01,2021-037A,2025-12-06T13:11:37.359744,13.45435172,.00707396,63.4033,281.2019,355.7196,4.3217,0,U,48340,999,22608,.13686496E-3,-.8E-7,0
STARLINK-2613,2021-038A,2025-12-06T12:25:10.794720,15.06389943,.00011608,53.0566,59.8830,93.4287,266.6835,0,U,48353,999,25298,.22513302E-3,.3073E-4,0
STARLINK-2674,2021-038B,2025-12-06T12:19:52.854816,15.06402186,.00013675,53.0552,59.9047,78.7742,281.3401,0,U,48354,999,25298,.40490309E-3,.5755E-4,0
STARLINK-2635,2021-038C,2025-12-06T12:14:35.318400,15.06396965,.00013763,53.0543,59.9161,76.5259,283.5884,0,U,48355,999,25298,.53070714E-3,.7632E-4,0
STARLINK-2637,2021-038D,2025-12-06T12:09:15.534720,15.06416739,.00021163,53.0528,59.9344,91.4831,268.6400,0,U,48356,999,25298,.43211773E-3,.6163E-4,0
STARLINK-2636,2021-038E,2025-12-06T13:02:26.289312,15.06378101,.00013602,53.0554,60.1923,100.8777,259.2365,0,U,48357,999,25298,.2012059E-3,.2715E-4,0
STARLINK-2624,2021-038F,2025-12-06T11:58:39.785376,15.06392331,.00013358,53.0549,59.9675,96.9227,263.1914,0,U,48358,999,25297,.90364334E-4,.1065E-4,0
STARLINK-2628,2021-038G,2025-12-06T15:04:24.793536,15.06411029,.00016182,53.0556,59.3910,75.3366,284.7803,0,U,48359,999,25299,.26058753E-3,.3603E-4,0
STARLINK-2622,2021-038H,2025-12-06T14:59:05.780544,15.06411798,.00014608,53.0571,59.4004,98.3141,261.8014,0,U,48360,999,25299,.14861774E-3,.1934E-4,0
STARLINK-2591,2021-038J,2025-12-06T11:42:44.457984,15.06389159,.00014848,53.0570,60.0166,90.5749,269.5410,0,U,48361,999,25297,.16561451E-4,-.35E-6,0
STARLINK-2578,2021-038K,2025-12-06T12:30:31.056192,15.06388056,.00012588,53.0545,59.9535,88.1877,271.9256,0,U,48362,999,25298,.6976428E-5,-.177E-5,0
STARLINK-2626,2021-038L,2025-12-06T16:00:03.000096,15.80022499,.00100522,53.0461,330.6674,52.7103,130.8182,0,U,48363,999,596,.1575454E-2,.310203E-2,0
