[{"norad_id":"48315","company":"STARLINK","tle_line2":"2 48315  53.0554 149.2565 0001262  88.8201 271.2932 15.06388092254149","launch_date":"2021-04-29","type":"LEO","tle_line1":"1 48315U 21036AR  25340.65664260  .00000073  00000+0  23811-4 0  9990","satellite_name":"STARLINK-2506"},{"norad_id":"48316","company":"STARLINK","tle_line2":"2 48316  53.0556 149.2757 0001384 103.9907 256.1237 15.06391938254145","launch_date":"2021-04-29","type":"LEO","tle_line1":"1 48316U 21036AS  25340.65294916  .00000660  00000+0  63228-4 0  9996","satellite_name":"STARLINK-2507"},{"norad_id":"48317","company":"STARLINK","tle_line2":"2 48317  53.0547 149.2893 0001500  97.8935 262.2224 15.06388229254142","launch_date":"2021-04-29","type":"LEO","tle_line1":"1 48317U 21036AT  25340.64926966  .00001002  00000+0  86185-4 0  9991","satellite_name":"STARLINK-2513"},{"norad_id":"48318","company":"STARLINK","tle_line2":"2 48318  53.0526 161.1171 0001292  82.4855 277.6280 15.06383083253943","launch_date":"2021-04-29","type":"LEO","tle_line1":"1 48318U 21036AU  25340.24289464  .00005002  00000+0  35459-3 0  9994","satellite_name":"STARLINK-2509"},{"norad_id":"48319","company":"STARLINK","tle_line2":"2 48319  53.0539 159.9373 0001360  92.9173 267.1971 15.06379679253983","launch_date":"2021-04-29","type":"LEO","tle_line1":"1 48319U 21036AV  25340.50366873 -.00001012  00000+0 -49096-4 0  9996","satellite_name":"STARLINK-2512"},{"norad_id":"48320","company":"STARLINK","tle_line2":"2 48320  53.0550 159.9607 0001472  85.4773 274.6384 15.06391753253983","launch_date":"2021-04-29","type":"LEO","tle_line1":"1 48320U 21036AW  25340.50090125  .00000076  00000+0  24024-4 0  9993","satellite_name":"STARLINK-2029"},{"norad_id":"48321","company":"STARLINK","tle_line2":"2 48321  53.0520 159.9805 0001572 102.5537 257.5628 15.06405811253983","launch_date":"2021-04-29","type":"LEO","tle_line1":"1 48321U 21036AX  25340.49724040  .00008986  00000+0  62127-3 0  9995","satellite_name":"STARLINK-2457"},{"norad_id":"48323","company":"STARLINK","tle_line2":"2 48323  53.0537 160.0077 0001447 112.0120 248.1023 15.06393485253980","launch_date":"2021-04-29","type":"LEO","tle_line1":"1 48323U 21036AZ  25340.48984941 -.00000707  00000+0 -28576-4 0  9990","satellite_name":"STARLINK-2515"},{"norad_id":"48325","company":"STARLINK","tle_line2":"2 48325  53.0541 160.0394 0001540 103.8764 256.2396 15.06396459253982","launch_date":"2021-04-29","type":"LEO","tle_line1":"1 48325U 21036BB  25340.48249914  .00007981  00000+0  55410-3 0  9991","satellite_name":"STARLINK-2495"},{"norad_id":"48326","company":"STARLINK","tle_line2":"2 48326  53.0548 160.0564 0001679 105.2007 254.9168 15.06385156253982","launch_date":"2021-04-29","type":"LEO","tle_line1":"1 48326U 21036BC  25340.47880333 -.00001261  00000+0 -65778-4 0  9993","satellite_name":"STARLINK-2498"},{"norad_id":"48327","company":"STARLINK","tle_line2":"2 48327  53.0555 159.7752 0001378  94.9833 265.1313 15.06381291253995","launch_date":"2021-04-29","type":"LEO","tle_line1":"1 48327U 21036BD  25340.54146163 -.00000388  00000+0 -71369-5 0  9991","satellite_name":"STARLINK-2502"},{"norad_id":"48328","company":"STARLINK","tle_line2":"2 48328  53.0543 159.7893 0001624  87.0885 273.0290 15.06403730253998","launch_date":"2021-04-29","type":"LEO","tle_line1":"1 48328U 21036BE  25340.53775641  .00002012  00000+0  15390-3 0  9994","satellite_name":"STARLINK-2504"},{"norad_id":"48329","company":"STARLINK","tle_line2":"2 48329  53.0535 159.8164 0001385  86.2837 273.8311 15.06399554253994","launch_date":"2021-04-29","type":"LEO","tle_line1":"1 48329U 21036BF  25340.53407137 -.00000875  00000+0 -39867-4 0  9990","satellite_name":"STARLINK-2510"},{"norad_id":"48330","company":"STARLINK","tle_line2":"2 48330  53.0522 163.1020 0001458  88.9439 271.1717 15.06408683253882","launch_date":"2021-04-29","type":"LEO","tle_line1":"1 48330U 21036BG  25339.80056573  .00002477  00000+0  18510-3 0  9993","satellite_name":"STARLINK-2501"},{"norad_id":"48331","company":"STARLINK","tle_line2":"2 48331  53.0538 159.2447 0001332  98.1579 261.9561 15.06401918254012","launch_date":"2021-04-29","type":"LEO","tle_line1":"1 48331U 21036BH  25340.65939036 -.00000686  00000+0 -27164-4 0  9991","satellite_name":"STARLINK-2514"},{"norad_id":"48332","company":"STARLINK","tle_line2":"2 48332  53.0508 144.0437 0002273 325.7901 198.4721 15.79662793  5694","launch_date":"2021-04-29","type":"LEO","tle_line1":"1 48332U 21036BJ  25340.66670139  .00251728  00000+0  13125-2 0  9992","satellite_name":"STARLINK-2511"},{"norad_id":"48333","company":"STARLINK","tle_line2":"2 48333  53.0541 159.2786 0000992  97.6432 262.4669 15.06392508254016","launch_date":"2021-04-29","type":"LEO","tle_line1":"1 48333U 21036BK  25340.65203690 -.00003518  00000+0 -21745-3 0  9998","satellite_name":"STARLINK-2518"},{"norad_id":"48334","company":"STARLINK","tle_line2":"2 48334  53.0542 159.2941 0001287  86.3284 273.7852 15.06399276254017","launch_date":"2021-04-29","type":"LEO","tle_line1":"1 48334U 21036BL  25340.64833424 -.00000870  00000+0 -39551-4 0  9995","satellite_name":"STARLINK-2470"},{"norad_id":"48353","company":"STARLINK","tle_line2":"2 48353  53.0566  59.8830 0001160  93.4287 266.6835 15.06389943252984","launch_date":"2021-05-04","type":"LEO","tle_line1":"1 48353U 21038A   25340.51748605  .00003073  00000+0  22513-3 0  9995","satellite_name":"STARLINK-2613"},{"norad_id":"48354","company":"STARLINK","tle_line2":"2 48354  53.0552  59.9047 0001367  78.7742 281.3401 15.06402186252980","launch_date":"2021-05-04","type":"LEO","tle_line1":"1 48354U 21038B   25340.51380619  .00005755  00000+0  40490-3 0  9996","satellite_name":"STARLINK-2674"},{"norad_id":"48355","company":"STARLINK","tle_line2":"2 48355  53.0543  59.9161 0001376  76.5259 283.5884 15.06396965252983","launch_date":"2021-05-04","type":"LEO","tle_line1":"1 48355U 21038C   25340.51013100  .00007632  00000+0  53071-3 0  9990","satellite_name":"STARLINK-2635"},{"norad_id":"48356","company":"STARLINK","tle_line2":"2 48356  53.0528  59.9344 0002116  91.4831 268.6400 15.06416739252985","launch_date":"2021-05-04","type":"LEO","tle_line1":"1 48356U 21038D   25340.50642980  .00006163  00000+0  43212-3 0  9998","satellite_name":"STARLINK-2637"},{"norad_id":"48357","company":"STARLINK","tle_line2":"2 48357  53.0554  60.1923 0001360 100.8777 259.2365 15.06378101252982","launch_date":"2021-05-04","type":"LEO","tle_line1":"1 48357U 21038E   25340.54335983  .00002715  00000+0  20121-3 0  9998","satellite_name":"STARLINK-2636"},{"norad_id":"48358","company":"STARLINK","tle_line2":"2 48358  53.0549  59.9675 0001335  96.9227 263.1914 15.06392331252978","launch_date":"2021-05-04","type":"LEO","tle_line1":"1 48358U 21038F   25340.49907159  .00001065  00000+0  90364-4 0  9997","satellite_name":"STARLINK-2624"},{"norad_id":"48359","company":"STARLINK","tle_line2":"2 48359  53.0556  59.3910 0001618  75.3366 284.7803 15.06411029252996","launch_date":"2021-05-04","type":"LEO","tle_line1":"1 48359U 21038G   25340.62806474  .00003603  00000+0  26059-3 0  9990","satellite_name":"STARLINK-2628"},{"norad_id":"48360","company":"STARLINK","tle_line2":"2 48360  53.0571  59.4004 0001460  98.3141 261.8014 15.06411798252994","launch_date":"2021-05-04","type":"LEO","tle_line1":"1 48360U 21038H   25340.62437246  .00001934  00000+0  14862-3 0  9993","satellite_name":"STARLINK-2622"},{"norad_id":"48361","company":"STARLINK","tle_line2":"2 48361  53.0570  60.0166 0001484  90.5749 269.5410 15.06389159252973","launch_date":"2021-05-04","type":"LEO","tle_line1":"1 48361U 21038J   25340.48801456 -.00000035  00000+0  16561-4 0  9997","satellite_name":"STARLINK-2591"},{"norad_id":"48362","company":"STARLINK","tle_line2":"2 48362  53.0545  59.9535 0001258  88.1877 271.9256 15.06388056252988","launch_date":"2021-05-04","type":"LEO","tle_line1":"1 48362U 21038K   25340.52119278 -.00000177  00000+0  69764-5 0  9998","satellite_name":"STARLINK-2578"},{"norad_id":"48363","company":"STARLINK","tle_line2":"2 48363  53.0461 330.6674 0010052  52.7103 130.8182 15.80022499  5963","launch_date":"2021-05-04","type":"LEO","tle_line1":"1 48363U 21038L   25340.66670139  .00310203  00000+0  15755-2 0  9993","satellite_name":"STARLINK-2626"},{"norad_id":"48340","company":"ACTIVE","tle_line2":"2 48340  63.4033 281.2019 0070739 355.7196   4.3217 13.45435172226085","launch_date":"2021-04-30","type":"LEO","tle_line1":"1 48340U 21037A   25340.54973796 -.00000008  00000+0  13686-3 0  9991","satellite_name":"YAOGAN-34 01"}]